{"type": "FeatureCollection", "features": [ {"type": "Feature", "properties": {"norad_id": 67021, "name": "STARLINK-36184", "group": "last-30-days", "lat": 41.569288046665534, "lon": -59.569370589766486, "alt_km": 357.34091330874435, "timestamp": "2025-12-27T08:36:17.080455+00:00", "meta": {"OBJECT_NAME": "STARLINK-36184", "OBJECT_ID": "2025-293U", "EPOCH": "2025-12-27T04:00:01.998720", "MEAN_MOTION": 15.70432812, "ECCENTRICITY": 0.0003572, "INCLINATION": 69.9972, "RA_OF_ASC_NODE": 282.1204, "ARG_OF_PERICENTER": 271.6445, "MEAN_ANOMALY": 129.3126, "EPHEMERIS_TYPE": 0, "CLASSIFICATION_TYPE": "U", "NORAD_CAT_ID": 67021, "ELEMENT_SET_NO": 999, "REV_AT_EPOCH": 253, "BSTAR": -0.014836, "MEAN_MOTION_DOT": -0.01619439, "MEAN_MOTION_DDOT": 0}, "tle": {"line1": "1 67021U 25293U   25361.16668980 -.01619439  00000+0 -14836-1 0  9995", "line2": "2 67021  69.9972 282.1204 0003572 271.6445 129.3126 15.70432812  2532"}}, "geometry": {"type": "Point", "coordinates": [-59.569370589766486, 41.569288046665534]}}, {"type": "Feature", "properties": {"norad_id": 67022, "name": "STARLINK-36209", "group": "last-30-days", "lat": 43.790535438258054, "lon": -57.98170336432969, "alt_km": 357.1891918365336, "timestamp": "2025-12-27T08:36:17.080465+00:00", "meta": {"OBJECT_NAME": "STARLINK-36209", "OBJECT_ID": "2025-293V", "EPOCH": "2025-12-27T04:00:01.998720", "MEAN_MOTION": 15.70398165, "ECCENTRICITY": 0.0003592, "INCLINATION": 69.9971, "RA_OF_ASC_NODE": 282.1174, "ARG_OF_PERICENTER": 271.4087, "MEAN_ANOMALY": 132.0797, "EPHEMERIS_TYPE": 0, "CLASSIFICATION_TYPE": "U", "NORAD_CAT_ID": 67022, "ELEMENT_SET_NO": 999, "REV_AT_EPOCH": 253, "BSTAR": -0.014847, "MEAN_MOTION_DOT": -0.01618342, "MEAN_MOTION_DDOT": 0}, "tle": {"line1": "1 67022U 25293V   25361.16668980 -.01618342  00000+0 -14847-1 0  9990", "line2": "2 67022  69.9971 282.1174 0003592 271.4087 132.0797 15.70398165  2537"}}, "geometry": {"type": "Point", "coordinates": [-57.98170336432969, 43.790535438258054]}}, {"type": "Feature", "properties": {"norad_id": 67023, "name": "STARLINK-36191", "group": "last-30-days", "lat": 45.763451320070985, "lon": -56.45510097454773, "alt_km": 357.13628826553577, "timestamp": "2025-12-27T08:36:17.080475+00:00", "meta": {"OBJECT_NAME": "STARLINK-36191", "OBJECT_ID": "2025-293W", "EPOCH": "2025-12-27T04:00:01.998720", "MEAN_MOTION": 15.70378321, "ECCENTRICITY": 0.0003775, "INCLINATION": 69.9979, "RA_OF_ASC_NODE": 282.1144, "ARG_OF_PERICENTER": 270.5501, "MEAN_ANOMALY": 135.2011, "EPHEMERIS_TYPE": 0, "CLASSIFICATION_TYPE": "U", "NORAD_CAT_ID": 67023, "ELEMENT_SET_NO": 999, "REV_AT_EPOCH": 242, "BSTAR": -0.014886, "MEAN_MOTION_DOT": -0.0162109, "MEAN_MOTION_DDOT": 0}, "tle": {"line1": "1 67023U 25293W   25361.16668980 -.01621090  00000+0 -14886-1 0  9998", "line2": "2 67023  69.9979 282.1144 0003775 270.5501 135.2011 15.70378321  2421"}}, "geometry": {"type": "Point", "coordinates": [-56.45510097454773, 45.763451320070985]}}, {"type": "Feature", "properties": {"norad_id": 67024, "name": "STARLINK-36192", "group": "last-30-days", "lat": 47.843179989959935, "lon": -54.700206048450774, "alt_km": 356.9783683355108, "timestamp": "2025-12-27T08:36:17.080488+00:00", "meta": {"OBJECT_NAME": "STARLINK-36192", "OBJECT_ID": "2025-293X", "EPOCH": "2025-12-26T22:00:01.999584", "MEAN_MOTION": 15.7129701, "ECCENTRICITY": 0.00036193, "INCLINATION": 69.9971, "RA_OF_ASC_NODE": 282.8162, "ARG_OF_PERICENTER": 267.3555, "MEAN_ANOMALY": 167.5086, "EPHEMERIS_TYPE": 0, "CLASSIFICATION_TYPE": "U", "NORAD_CAT_ID": 67024, "ELEMENT_SET_NO": 999, "REV_AT_EPOCH": 250, "BSTAR": -0.015097584, "MEAN_MOTION_DOT": -0.01698708, "MEAN_MOTION_DDOT": 0}, "tle": {"line1": "1 67024U 25293X   25360.91668981 -.01698708  00000+0 -15098-1 0  9998", "line2": "2 67024  69.9971 282.8162 0003619 267.3555 167.5086 15.71297010  2506"}}, "geometry": {"type": "Point", "coordinates": [-54.700206048450774, 47.843179989959935]}}, {"type": "Feature", "properties": {"norad_id": 67025, "name": "STARLINK-36178", "group": "last-30-days", "lat": 49.68863907423384, "lon": -53.00224212957833, "alt_km": 356.64102963363166, "timestamp": "2025-12-27T08:36:17.080498+00:00", "meta": {"OBJECT_NAME": "STARLINK-36178", "OBJECT_ID": "2025-293Y", "EPOCH": "2025-12-27T04:00:01.998720", "MEAN_MOTION": 15.70334044, "ECCENTRICITY": 0.0003541, "INCLINATION": 69.9975, "RA_OF_ASC_NODE": 282.1089, "ARG_OF_PERICENTER": 272.1116, "MEAN_ANOMALY": 138.2268, "EPHEMERIS_TYPE": 0, "CLASSIFICATION_TYPE": "U", "NORAD_CAT_ID": 67025, "ELEMENT_SET_NO": 999, "REV_AT_EPOCH": 254, "BSTAR": -0.01485, "MEAN_MOTION_DOT": -0.01614789, "MEAN_MOTION_DDOT": 0}, "tle": {"line1": "1 67025U 25293Y   25361.16668980 -.01614789  00000+0 -14850-1 0  9998", "line2": "2 67025  69.9975 282.1089 0003541 272.1116 138.2268 15.70334044  2542"}}, "geometry": {"type": "Point", "coordinates": [-53.00224212957833, 49.68863907423384]}}, {"type": "Feature", "properties": {"norad_id": 67026, "name": "STARLINK-36176", "group": "last-30-days", "lat": 53.47017884396077, "lon": -48.97858870800016, "alt_km": 356.3348158333929, "timestamp": "2025-12-27T08:36:17.080510+00:00", "meta": {"OBJECT_NAME": "STARLINK-36176", "OBJECT_ID": "2025-293Z", "EPOCH": "2025-12-27T04:00:01.998720", "MEAN_MOTION": 15.70295722, "ECCENTRICITY": 0.000353, "INCLINATION": 69.9974, "RA_OF_ASC_NODE": 282.1036, "ARG_OF_PERICENTER": 272.3915, "MEAN_ANOMALY": 142.5028, "EPHEMERIS_TYPE": 0, "CLASSIFICATION_TYPE": "U", "NORAD_CAT_ID": 67026, "ELEMENT_SET_NO": 999, "REV_AT_EPOCH": 254, "BSTAR": -0.014929, "MEAN_MOTION_DOT": -0.01620047, "MEAN_MOTION_DDOT": 0}, "tle": {"line1": "1 67026U 25293Z   25361.16668980 -.01620047  00000+0 -14929-1 0  9990", "line2": "2 67026  69.9974 282.1036 0003530 272.3915 142.5028 15.70295722  2542"}}, "geometry": {"type": "Point", "coordinates": [-48.97858870800016, 53.47017884396077]}}, {"type": "Feature", "properties": {"norad_id": 67027, "name": "STARLINK-36171", "group": "last-30-days", "lat": 51.74412348468132, "lon": -50.91615644147892, "alt_km": 356.5216104211322, "timestamp": "2025-12-27T08:36:17.080520+00:00", "meta": {"OBJECT_NAME": "STARLINK-36171", "OBJECT_ID": "2025-293AA", "EPOCH": "2025-12-27T04:00:01.998720", "MEAN_MOTION": 15.70308334, "ECCENTRICITY": 0.0003521, "INCLINATION": 69.9969, "RA_OF_ASC_NODE": 282.1061, "ARG_OF_PERICENTER": 270.5845, "MEAN_ANOMALY": 142.215, "EPHEMERIS_TYPE": 0, "CLASSIFICATION_TYPE": "U", "NORAD_CAT_ID": 67027, "ELEMENT_SET_NO": 999, "REV_AT_EPOCH": 254, "BSTAR": -0.014929, "MEAN_MOTION_DOT": -0.0162079, "MEAN_MOTION_DDOT": 0}, "tle": {"line1": "1 67027U 25293AA  25361.16668980 -.01620790  00000+0 -14929-1 0  9996", "line2": "2 67027  69.9969 282.1061 0003521 270.5845 142.2150 15.70308334  2544"}}, "geometry": {"type": "Point", "coordinates": [-50.91615644147892, 51.74412348468132]}}, {"type": "Feature", "properties": {"norad_id": 67028, "name": "STARLINK-36132", "group": "last-30-days", "lat": 57.10692390643053, "lon": -44.15970656457264, "alt_km": 356.1403083416035, "timestamp": "2025-12-27T08:36:17.080531+00:00", "meta": {"OBJECT_NAME": "STARLINK-36132", "OBJECT_ID": "2025-293AB", "EPOCH": "2025-12-27T04:00:01.998720", "MEAN_MOTION": 15.70253764, "ECCENTRICITY": 0.000365, "INCLINATION": 69.9973, "RA_OF_ASC_NODE": 282.0983, "ARG_OF_PERICENTER": 273.0859, "MEAN_ANOMALY": 146.3861, "EPHEMERIS_TYPE": 0, "CLASSIFICATION_TYPE": "U", "NORAD_CAT_ID": 67028, "ELEMENT_SET_NO": 999, "REV_AT_EPOCH": 254, "BSTAR": -0.014933, "MEAN_MOTION_DOT": -0.01618055, "MEAN_MOTION_DDOT": 0}, "tle": {"line1": "1 67028U 25293AB  25361.16668980 -.01618055  00000+0 -14933-1 0  9993", "line2": "2 67028  69.9973 282.0983 0003650 273.0859 146.3861 15.70253764  2548"}}, "geometry": {"type": "Point", "coordinates": [-44.15970656457264, 57.10692390643053]}}, {"type": "Feature", "properties": {"norad_id": 67029, "name": "STARLINK-36190", "group": "last-30-days", "lat": 55.206441525871, "lon": -46.81938241283731, "alt_km": 356.24719023044327, "timestamp": "2025-12-27T08:36:17.080544+00:00", "meta": {"OBJECT_NAME": "STARLINK-36190", "OBJECT_ID": "2025-293AC", "EPOCH": "2025-12-27T04:00:01.998720", "MEAN_MOTION": 15.70283015, "ECCENTRICITY": 0.0003597, "INCLINATION": 69.9978, "RA_OF_ASC_NODE": 282.1017, "ARG_OF_PERICENTER": 271.5751, "MEAN_ANOMALY": 145.4705, "EPHEMERIS_TYPE": 0, "CLASSIFICATION_TYPE": "U", "NORAD_CAT_ID": 67029, "ELEMENT_SET_NO": 999, "REV_AT_EPOCH": 254, "BSTAR": -0.014924, "MEAN_MOTION_DOT": -0.01618852, "MEAN_MOTION_DDOT": 0}, "tle": {"line1": "1 67029U 25293AC  25361.16668980 -.01618852  00000+0 -14924-1 0  9999", "line2": "2 67029  69.9978 282.1017 0003597 271.5751 145.4705 15.70283015  2546"}}, "geometry": {"type": "Point", "coordinates": [-46.81938241283731, 55.206441525871]}}, {"type": "Feature", "properties": {"norad_id": 67030, "name": "STARLINK-36138", "group": "last-30-days", "lat": -35.21018501576005, "lon": 43.844335763055675, "alt_km": 383.41745584369073, "timestamp": "2025-12-27T08:36:17.080554+00:00", "meta": {"OBJECT_NAME": "STARLINK-36138", "OBJECT_ID": "2025-294A", "EPOCH": "2025-12-27T04:00:01.998720", "MEAN_MOTION": 15.63009138, "ECCENTRICITY": 0.0001508, "INCLINATION": 42.999, "RA_OF_ASC_NODE": 94.2167, "ARG_OF_PERICENTER": 266.9169, "MEAN_ANOMALY": 34.8865, "EPHEMERIS_TYPE": 0, "CLASSIFICATION_TYPE": "U", "NORAD_CAT_ID": 67030, "ELEMENT_SET_NO": 999, "REV_AT_EPOCH": 242, "BSTAR": -0.023269, "MEAN_MOTION_DOT": -0.01919932, "MEAN_MOTION_DDOT": 0}, "tle": {"line1": "1 67030U 25294A   25361.16668980 -.01919932  00000+0 -23269-1 0  9997", "line2": "2 67030  42.9990  94.2167 0001508 266.9169  34.8865 15.63009138  2421"}}, "geometry": {"type": "Point", "coordinates": [43.844335763055675, -35.21018501576005]}}]}